[{"OBJECT_NAME":"STARLINK-31661","OBJECT_ID":"2024-090F","EPOCH":"2026-03-09T09:01:38.150400","MEAN_MOTION":15.27578506,"ECCENTRICITY":0.00020211,"INCLINATION":43.0005,"RA_OF_ASC_NODE":178.2217,"ARG_OF_PERICENTER":270.973,"MEAN_ANOMALY":89.089,"EPHEMERIS_TYPE":0,"CLASSIFICATION_TYPE":"U","NORAD_CAT_ID":59735,"ELEMENT_SET_NO":999,"REV_AT_EPOCH":10347,"BSTAR":8.2049677e-5,"MEAN_MOTION_DOT":1.996e-5,"MEAN_MOTION_DDOT":0},{"OBJECT_NAME":"HERMES-2","OBJECT_ID":"2025-052AK","EPOCH":"2026-03-09T22:17:00.130272","MEAN_MOTION":15.28021069,"ECCENTRICITY":0.00063399,"INCLINATION":97.4004,"RA_OF_ASC_NODE":324.4926,"ARG_OF_PERICENTER":99.416,"MEAN_ANOMALY":260.7796,"EPHEMERIS_TYPE":0,"CLASSIFICATION_TYPE":"U","NORAD_CAT_ID":63243,"ELEMENT_SET_NO":999,"REV_AT_EPOCH":5485,"BSTAR":0.00034839454,"MEAN_MOTION_DOT":9.456e-5,"MEAN_MOTION_DDOT":0}]
